[{"OBJECT_NAME":"IRIDIUM 160","OBJECT_ID":"2018-061A","EPOCH":"2026-03-09T22:03:46.499616","MEAN_MOTION":14.34217171,"ECCENTRICITY":0.00022327,"INCLINATION":86.3914,"RA_OF_ASC_NODE":98.3199,"ARG_OF_PERICENTER":91.5582,"MEAN_ANOMALY":268.587,"EPHEMERIS_TYPE":0,"CLASSIFICATION_TYPE":"U","NORAD_CAT_ID":43569,"ELEMENT_SET_NO":999,"REV_AT_EPOCH":39914,"BSTAR":-1.4041758e-5,"MEAN_MOTION_DOT":-2.0e-7,"MEAN_MOTION_DDOT":0},{"OBJECT_NAME":"COSMOS 990","OBJECT_ID":"1978-019A","EPOCH":"2026-03-09T22:10:34.278240","MEAN_MOTION":14.37213765,"ECCENTRICITY":0.00168386,"INCLINATION":74.0411,"RA_OF_ASC_NODE":333.5985,"ARG_OF_PERICENTER":326.9999,"MEAN_ANOMALY":33.0103,"EPHEMERIS_TYPE":0,"CLASSIFICATION_TYPE":"U","NORAD_CAT_ID":10676,"ELEMENT_SET_NO":999,"REV_AT_EPOCH":51576,"BSTAR":7.906452e-5,"MEAN_MOTION_DOT":2.09e-6,"MEAN_MOTION_DDOT":0}]
